Kentrix_ID,Name,Latitude,Longitude,Address
1,"Chikkavadiyar, Anantapur Dam",14.6708,77.6703,A
2,Akasaganga Dam,13.7683,79.3392,B
3,Amakhokhra T. Dam,22.5331,82.5261,C
4,Wandh Dam,23.3381,69.4,D
5,Kadoli Dam,23.0681,68.8289,A
6,Chiroda Dam,21.7239,72.5275,B
7,Gulabsagar Dam,21.8753,69.7269,C
8,Kalubhar Dam,22.7333,71.1,D
9,Meenar I Dam,9.4164,77.1761,A
10,Gandhi Sagar Dam,24.0828,75.5533,B
11,Beniganj Dam,24.7622,79.8786,C
12,Silkuwa Dam,22.1978,74.7347,D
13,Piprani No. 2 T Dam,22.5303,74.7653,A
14,Malavar Dam,23.8353,77.0589,B
15,Pahawadi Dam,22.2291,77.889,C
16,Basaura Dam,23.9667,82.5403,D
17,Bagadih Dam,24.2275,82.3367,A
18,Chavadi Dam,21.0992,74.4986,B
19,Manor Dam,19.7247,72.8936,C
20,Srigaon Dam,18.6536,73.0039,D
21,Jambnala Dam,19.7933,77.6575,A
22,Murdoli Dam,21.255,80.2122,B
23,Pimari Dam,20.1097,77.9125,C
24,Bhardi Dam,20.4172,75.5044,D
25,"Gowricheru, Mogili Dam",13.23,78.8194,A
26,Sonpur -1 Dam,20.3525,81.5883,B
27,Saputara Dam,20.5761,73.7481,C
28,Dhandha Dam,22.1281,69.1742,D
29,Pigut Dam,21.5086,73.3828,A
30,Sholayar (Main) Dam,10.3222,76.7356,B
31,Jalheridhana Dam,23.6206,79.6631,C
32,Kohru Dam,22.5042,74.7425,D
33,Sidoli Dam,23.1872,81.7131,A
34,Khapa Dam,23.0317,80.1556,B
35,Chikhlatola Dam,22.6031,80.5228,C
36,Singhanpuri Dam,21.8839,80.7697,D
37,Manki Dam,23.9083,77.0431,A
38,Ama Nalla Paraswara Dam,22.1811,80.3006,B
39,Borgawan Dam,21.565,78.8025,C
40,Nanukhedi Dam,23.6525,76.1367,D
41,Deep Sagar Dam,24.9136,78.8661,A
42,Walwan Dam,18.765,73.4242,B
43,Gondkhed Dam,20.7919,75.9422,C
44,Hatgaon-I Dam,20.3953,74.8619,D
45,Shioni Bhondki Dam,21.4164,79.4742,A
46,Ambagad Dam,21.4511,79.6697,B
47,Tillari (Forebay) Dam,15.8072,74.1836,C
48,Khandpe Dam,19.3025,73.4614,D
49,Pashane Dam,19.1111,73.3236,A
50,Morde Dam,17,73.6664,B
51,Nimbadevi Dam,19.9297,78.6361,C
52,Alyani Dam,19.2586,73.5667,D
53,Narivali Dam,19.1356,73.0881,A
54,Karwappa Dam,20.1444,80.1978,B
55,Nampada Dam,19.9622,73.5292,C
56,Pandhari Dam,21.5239,78.3889,D
57,Bodegaon Dam,20.2994,75.9792,A
58,Pahur Dam,18.3833,73.275,B
59,"Umiam Earthen Dam (Stage- I),Umiam Dam",25.6726,91.9019,C
60,Dhulipaunsia Dam,20.1786,85.0267,D
61,Gayapathara Dam,20.3078,85.2669,A
62,Khajuria Dam,20.3089,85.4236,B
63,Chatra Kunta Dam,23.2167,74.3139,C
64,Alair Reservoir Dam,13.5833,79.4167,D
65,Koyali-Mandvi Dam,21.3833,73.5667,A
66,Pachama Dam,22.0858,77.9,B
67,Nando Dam,23.9453,82.4511,C
68,Khina Dam,23.2306,80.3025,D
69,Khaikheda Dam,23.4567,77.1864,A
70,Longerpura Dam,23.5972,77.5364,B
71,Korar Dam,24.3558,81.9658,C
72,Deori Dam,23.0958,80.3814,D
73,Tamia Dam,22.3494,78.6714,A
74,Ramtek Dam,21.3808,79.3781,B
75,Kharad Dam,20.3014,78.1114,C
76,Vapholi Dam,15.8444,73.8753,D
77,Sajatpur Dam,19.5008,75.6967,A
78,Kategaon Dam,18.4847,75.2103,B
79,Chalkewadi Dam,17.1969,74.0122,C
80,Rawalgaon Dam,20.1425,73.7136,D
81,Nil Kanteshwar Dam,18.2781,76.3181,A
82,Nandvipurar Dam,18.1067,73.2831,B
83,Kharsai Dam,18.1519,73.0603,C
84,Mahamadwadi Dam,16.2079,73.8825,D
85,Chinchati (Lahara) Dam,21.2636,75.9069,A
86,Daresarsam. Dam,19.3361,77.8925,B
87,Kalamnuri Dam,19.6781,77.3214,C
88,Andhori Dam,18.7703,76.8156,D
89,Sarfrajpur Dam,18.2636,76.2492,A
90,Musabhadrayani Dam,19.8839,75.5472,B
91,Dalikupa M.I.P Dam,19.8667,83.3333,C
92,Vanothi Dam,22.7956,73.1194,D
93,Vansiali Dam,21.3319,71.4886,A
94,Vali Dam,21.7667,73.3381,B
95,Dhankai Dam,24.2233,83.9564,C
96,Khankuria Dam,24.2753,76.9444,D
97,Barbatpur Dam,23.1375,77.7206,A
98,Chhuhiya Dam,24.5783,81.81,B
99,Bandri Dam,24.0317,78.6181,C
100,Dhantoli Dam,22.7044,75.6556,D
101,Kansel Dam,21.9144,75.0592,A
102,Gonda Dam,24.7528,80.5136,B
103,Kohpani Dam,23.0839,80.1925,C
104,Masni Nalla Dam,21.25,80.3667,D
105,Lalawadi Dam,21.8972,78.1833,A
106,Ambari Dam,22.3064,74.2769,B
107,Ganjari Dam,24.0753,81.6569,C
108,Zapade Dam,16.8394,73.5158,D
109,Nagthana Dam,21.5517,78.2606,A
110,Asurde Dam,17.3628,73.5158,B
111,Dabachiwadi Dam,16.1086,73.6872,C
112,Nandla Dam,18.2925,73.0203,D
113,Purnaneopur Dam,20.3981,75.3239,A
114,Kaseli Dam,16.7186,73.3261,B
115,Bhegu Dam,20.5969,73.7931,C
116,Patane Dam,15.8686,74.2308,D
117,Shiwan Dam,21.3172,75.1972,A
118,Bewadi Dam,17.6344,74.3489,B
119,Dudhalwadi Dam,18.3964,75.8586,C
120,Bungihallah Bund Dam,11.2603,76.5269,D
121,Banghoghwa Dam,27.7936,82.1375,A
122,Ghoghwa Dam,27.7939,82.1378,B
123,Newari Dam,24.6514,83.3067,C
124,Pichhavi Dam,20.9167,70.85,D
125,Kundhada Dam,22.95,71.1333,A
126,Lafni Dam,22.3219,73.685,B
127,Kakarwa Dam,23.4942,70.3756,C
128,Debhari Dam,23.2544,73.5061,D
129,Sholayar (Flanking) Dam,10.3178,76.7342,A
130,Ametha Dam,23.5608,80.4481,B
131,Sarlai Dam,21.8181,75.1003,C
132,Umargarh Dam,24.0242,81.1642,D
133,Chitron Dam,23.7319,81.4975,A
134,Guradia Roopchand Dam,22.9603,76.5683,B
135,Mula Dam,19.345,74.6014,C
136,Ambeghar Dam,18.7436,73.1331,D
137,Varkute Dam,18.0531,74.9192,A
138,Solekh Dam,19.1156,73.3656,B
139,Ajang Dam,18.7058,76.5964,C
140,Oras (Bk) Dam,16.1283,73.7228,D
141,Here Dam,15.8819,74.1744,A
142,Kondhwal Dam,19.0892,73.57,B
143,Pargothan Dam,20.9175,78.2981,C
144,Dhondwadi Dam,18.5136,77.1847,D
145,"Kanpur Irr. Project
  (Major) Dam",22.0342,85.0631,A
146,Periyar Forebay Dam,9.6133,77.1775,B
147,Vennirar Dam,9.6231,77.3236,C
148,Vishnu Gad Pipalkoti Hep Dam,30.5139,79.4917,D
149,Turga Dam,23.1979,86.0626,A
150,Tatikunta Dam,16.0928,77.64,B
151,Iggalur Dam,12.7817,77.7042,C
152,Datla Dam,23.7486,80.5689,D
153,Kulwa Dam,23.915,79.8197,A
154,Imalia Dam,23.9925,80.1875,B
155,Basni Dam,23.7628,79.3575,C
156,Charkhari Dam,24.0642,81.4014,D
157,Tildha Dam,24.1728,81.7314,A
158,Nagri Dam,23.0939,77.6942,B
159,Yemai Dam,17.9447,76.66,C
160,Rampur Dam,19.9722,78.6625,D
161,Kawadasar Dam,20.2978,73.6347,A
162,Kudki Dam,18.2111,73.0033,B
163,Kadus Dam,18.8897,75.2394,C
164,Wadi Dam,21.4519,78.8364,D
165,Tithawali Dam,16.5706,73.6844,A
166,Shenwad Dam,19.6972,73.6414,B
167,Gaosud Dam,18.2017,76.0192,C
168,Karvel Dam,19.5653,72.8492,D
169,Warana Dam,19.5147,76.6678,A
170,Parule Dam,16.7611,73.7017,B
171,Gaddavane (Shindewadi) Dam,18.5,73.6442,C
172,Human Dam,20.3075,79.5392,D
173,Yenape Dam,17.1111,74.0289,A
174,Devibhoyane Dam,19.0125,74.2939,B
175,Talni Dam,18.0739,76.5475,C
176,Khadakpurna Dam,20.1556,76.0761,D
177,Kasola Dam,20.215,77.3006,A
178,Shreebhuvan Dam,20.5147,73.7222,B
179,Main Earth Dam Nongmahir (Stage-Iii) Dam,25.7762,91.7992,C
180,Kuba Khurd Dam,25.0278,82.8106,D
181,Bheemanpally Dam,16.7119,78.8897,A
182,Kajjerla Anicut Dam,19.6472,78.4467,B
183,"Janganala Project, Jagdevpur Dam",18.2224,77.8567,C
184,Bisrampuri Dam,19.3878,81.8372,D
185,Vanzara Dam,24.1964,72.7836,A
186,Bendiyabeli Dam,22.6181,71.8594,B
187,Jadakheriya Dam,22.8089,74.1539,C
188,Nagda Nalla Dam,23.645,78.845,D
189,Upper Balwada Dam,22.0681,75.6558,A
190,Mehra Seoni Dam,22.9878,80.4558,B
191,Harranbhata Dam,22.3158,79.0817,C
192,Panpura Dam,22.4667,75.1333,D
193,Barbuspur Dam,22.8122,80.2917,A
194,Bhirata Dam,24.9514,79.3819,B
195,Katiya Nalla Dam,22.0417,80.6664,C
196,Rushi Dam,20.4744,77.4953,D
197,Benikre Dam,16.3961,74.2375,A
198,Visarwadi Dam,18.3203,77.1511,B
199,Daryachevadgaon Dam,16.5964,74.2278,C
200,Nandari Dam,16.7872,73.9483,D
201,Nituur 2 Dam,16.0064,74.3667,A
202,Nandwal (Kolhapur) Dam,16.6189,74.1919,B
203,Talwadi Dam,17.5414,73.2847,C
204,Yelegaon Dam,19.2253,77.3875,D
205,Shendurni Dam,20.6375,75.5658,A
206,Bardipada Dam,21.0756,74.2103,B
207,Bilva Tirth Dam,19.9481,73.5233,C
208,Chinchve Dam,20.3981,74.32,D
209,Pandhari Dam,21.3653,77.5511,A
210,Manepuri Dam,19.1503,75.9042,B
211,Orai Dam,25.0361,74.8456,C
212,Juran Dam,23.4667,69.8333,D
213,Bhanmer Dam,23.8239,73.3511,A
214,Raipura Dam,23.2728,77.1147,B
215,Karpur Dam,21.5825,76.5644,C
216,Amanpura Dam,24.0578,76.4794,D
217,Kanari Dam,23.7744,81.3528,A
218,Bhaijiya Dam,23.6311,80.5625,B
219,Moursani Dam,22.595,79.1472,C
220,Pankua 2 Dam,22.5397,76.2944,D
221,Batkidoh Dam,22.2472,78.0139,A
222,Borgaon Kodaroti Dam,21.9203,77.7944,B
223,Velholi Dam,19.3797,73.5194,C
224,Kupti Dam,19.3589,78.0383,D
225,Vanjale Dam,19.265,73.3561,A
226,Dhaur Dam,20.1983,73.6622,B
227,Juwathi Dam,16.5808,73.5386,C
228,Nagan Dam,20.7872,75.8722,D
229,Varangaon Talwel Dam,20.9886,75.9597,A
230,Hanumantia (Khurda) Dam,20.1,85.5444,B
231,Porthimund Dam,11.3767,76.5719,C
232,Rallapadu Project Dam,15.0539,79.7183,D
233,Nawangaon Dam,21.3803,81.9447,A
234,Puna Dam,22.3494,69.9169,B
235,Bhamirya Dam,22.9633,73.3147,C
236,Lakhya Dam,13.2388,75.2268,D
237,Kullar Dam,9.41,77.1789,A
238,Jamuniya Rao Dam,23.6164,77.0208,B
239,Padrai Dam,23.7075,79.5022,C
240,Hirapur Dam,23.6153,78.7828,D
241,Badi Baodi Dam,22.4683,74.4636,A
242,Teliya Dam,20.1761,79.3544,B
243,Belkheda Dam,19.5683,76.625,C
244,Karve Dam,16.9828,74.1819,D
245,Pimpalgaon Nath Dam,20.6061,76.3461,A
246,Vhel Dam,16.7906,73.6389,B
247,Vishnupuri Dam,19.1067,77.2939,C
248,Aad Dam,20.2058,73.6031,D
249,Nittur 1 Dam,16.0042,74.3594,A
250,Kabryakhadak Dam,21.7044,74.0106,B
251,Otav Dam,16.3536,73.6631,C
252,Khursapur Dam,21.1978,79.6183,D
253,Sonkund Dam,21.2169,79.7997,A
254,Mungawad Dam,18.6575,75.52,B
255,Katpur Dam,21.2103,77.8975,C
256,"Umiam-Umtru Concrete Dam (Stage Iv), Nongkhyllem Dam",25.7758,91.7931,D
257,Sapua (Medium) Dam,20.5947,85.2936,A
258,Bakia Dam,23.9122,83.3319,B
259,"Patirajam Project, Jellella (V) Dam",18.2783,78.8042,C
260,Navabhetali Dam,23.7703,73.3139,D
261,Talvada Dam,23.3294,73.7344,A
262,Kaliya Hill Dam,23.0206,74.0278,B
263,Narayanapura Dam,16.2239,76.3447,C
264,Dhandibada Dam,22.3161,77.8894,D
265,Sawsara Dam,24.0828,76.9178,A
266,Bahniakhedi Dam,23.3672,76.8444,B
267,Sarai Dam,23.2486,80.6061,C
268,Lashuna Dam,24.0583,81.0833,D
269,Jamgaon Dam,21.5939,78.405,A
270,Kundali Dam,18.7228,73.3958,B
271,Walkeshwar Dam,20.9692,79.9761,C
272,Kundali Pick Up Dam,18.7225,73.3956,D
273,Silli Ambadi Dam,21.1142,79.6672,A
274,Anjneri Dam,19.9372,73.5944,B
275,Islampur (Kurha Vadhoda) Dam,20.0347,76.3906,C
276,Padoli (Lw) Dam,18.4658,76.2025,D
277,Badabandha Dam,20.8583,85.246,A
278,Jagannathasagar Dam,18.8539,82.5644,B
279,Gundlamotu Reservoir Dam,15.3553,79.8186,C
280,Adpur Dam,21.4844,71.7736,D
281,Anoo Dam,23.8317,79.5264,A
282,Bhonhari Dam,23.8222,78.9194,B
283,Somla Dam,23.7831,78.6892,C
284,Paladigwar Dam,22.9153,81.3136,D
285,Auria Dam,22.2761,79.3981,A
286,Nher Dam,17.7414,74.2978,B
287,Salebardi Dam,20.9039,79.9567,C
288,Shiposhi Dam,16.9392,73.6475,D
289,Januna Dam,20.4786,77.0378,A
290,Amboli Dam,15.9969,74.0442,B
291,Tulshi Dam,17.9667,73.2228,C
292,Gondala Dam,20.0956,76.6489,D
293,Jamkhedi Dam,18.4414,76.9772,A
294,Asnas Dam,19.5878,73.0014,B
295,Jaysinghrao Talav (Sir Pirajirav Talav) Dam,16.5944,74.3128,C
296,Dahyane Dam,20.3264,73.9947,D
297,Bhayala - 2 Dam,18.8231,75.5922,A
298,Undri Mangri Dam,20.4522,76.4565,B
299,Sayade Dam,19.7671,73.4383,C
300,Manimuthar Dam,8.6528,77.4125,D
301,Baghel Khand Dam,27.6214,82.4158,A
302,Banjari Kalan Dam,24.8197,82.2136,B
303,Bilashi Dam,24.9339,86.8547,C
304,Badrika Ashram T. Dam,23.1775,82.7506,D
305,Neerasagara Dam,15.3117,74.9869,A
306,Waregaon Dam,21.8233,78.1506,B
307,Badalpur Dam,22.2233,78.0994,C
308,Baretha Dam,22.1339,77.9125,D
309,Awalia Dam,22.4278,75.4828,A
310,Balasamund Dam,21.8039,75.1703,B
311,Kosduna Dam,22.4217,74.6236,C
312,Barnai Dam,24.3786,81.8167,D
313,Noosa Dam,22.7236,81.1431,A
314,Rankala Dam,16.6867,74.2142,B
315,Muchi Dam,20.0656,78.5883,C
316,Karli Dam,20.2694,77.1519,D
317,Jamalewani Dam,20.4414,73.8072,A
318,Mavalgaon Dam,18.6958,77.175,B
319,Nagthas Dam,18.7039,76.0406,C
320,Thirumurthi Dam,10.4833,77.1647,D
321,Sukhra Dam,24.7936,82.2722,A
322,Rexahawa Dam,24.7986,82.62,B
323,"Stambala Cheru, Yakeenpur (V) Dam",18.8033,78.6889,C
324,Fakirwadi Dam,23.1986,69.6225,D
325,Andhariparpata Dam,22.8069,73.98,A
326,Maneknath Dam,24.1136,72.8972,B
327,Noli Dam,21.1667,70.25,C
328,Titodi Dam,23.1697,74.1172,D
329,Nakti Dam,22.6783,74.0239,A
330,Lokpal Sagar Dam,24.7219,80.21,B
331,Semrakudri Dam,23.9719,80.18,C
332,Kanjhar Dam,21.9433,75.9956,D
333,Sursatola Dam,22.9128,81.0347,A
334,Tikara Dam,23.0967,81.1342,B
335,Ranhgi Dam,22.9128,81.0347,C
336,Nalajhiri Dam,24.0211,77.1117,D
337,Deorikheda Dam,24.0175,77.1125,A
338,Takali Dam,20.45,78.1167,B
339,Chi-Umberga Dam,17.7042,76.105,C
340,Panhalghar Dam,18.1806,73.3675,D
341,Waretola Dam,21.4367,80.1189,A
342,Loni Dhawalgiri Dam,21.4067,78.1836,B
343,Bhuratola Dam,21.4347,79.9625,C
344,Keket Sindagi Dam,18.6839,77.1647,D
345,Khuntephal (Poondy) Dam,18.9069,74.9528,A
346,Wangaon Pohari Dam,20.5583,75.3764,B
347,Western Catchment Weir-I Dam,11.2814,76.5308,C
348,Western Catchment Weir-Ii Dam,11.3192,76.5431,D
349,Sreerangarayani Cheruvu Dam,14.7858,77.7081,A
350,Chhuwari Pali T. Dam,21.6647,83.2397,B
351,Vadatalav Dam,22.4936,73.5556,C
352,Ozat Weir (Vanthali) Dam,21.1336,70.3033,D
353,Kadodia Dam,23.5114,76.1439,A
354,Virla Dam,22.5,75.3889,B
355,Ambakhal Dam,21.9378,76.9147,C
356,Machhariya Dam,23.4231,78.2781,D
357,Gurtara Dam,23.2683,81.4156,A
358,Tumadibhat Dam,22.1053,80.525,B
359,Mahuwa Khera Dam,23.7644,78.6492,C
360,Padaria Dam,23.4231,78.2783,D
361,Anjagaon Dam,20.8867,78.8661,A
362,Telewadi Dam,16.7019,73.7533,B
363,Satnoor Dam,21.5731,78.2853,C
364,Kehal Dam,19.6578,76.7347,D
365,Sawanga Dam,20.2031,77.1731,A
366,Mankarnika Dam,18.0817,75.9692,B
367,Khamkarwadi Dam,16.5494,74.0078,C
368,Maisdodak Dam,20.0506,78.7442,D
369,Talavade Dam,16.7017,73.7531,A
370,Talwade Dam,16.7028,73.7533,B
371,Devhari (Soyegaon) Dam,20.5589,76.3475,C
372,Suryaganga Dam,20.9286,77.9275,D
373,Nitali Dam,18.2661,76.2803,A
374,Kalamwadi Dam,15.9861,74.2722,B
375,Gagrin Dam,24.1264,75.9006,C
376,Sarai Garh Dam,24.7664,83.4047,D
377,Khairatia Dam,24.5861,83.1639,A
378,Bhekhado Dam,23.5953,68.7317,B
379,Serai Dam,23.1606,69.6042,C
380,Raipur Dam,22.4356,73.8383,D
381,Kankarpura Dam,22.5736,75.7275,A
382,Ratheli Dam,23.5039,80.9256,B
383,Amba Dam,22.6619,74.7342,C
384,Khameri Bagsari Dam,23.845,79.7839,D
385,Bicholi Dam,22.1083,74.2875,A
386,Khapri Dam,20.9769,79.2419,B
387,Landgewadi Dam,17.0353,74.8292,C
388,Telewadi (Digas) Dam,16.0978,73.7419,D
389,Hattipada Dam,19.4958,72.9489,A
390,Bobdoh Dam,21.4772,76.8792,B
391,Pandhari Dam,18.8031,75.2181,C
392,Lawaki Dam,19.2581,77.3828,D
393,Vidhe Dam,19.2411,73.4844,A
394,Hadashi 2 Dam,18.5897,73.5122,B
395,Nanhi Dam,20.965,78.8769,C
396,Kendrewadi Dam,18.6128,76.7625,D
397,Aradei Dam,21.58,85.6247,A
398,West Varahapallam Weir Dam,11.2325,76.5678,B
399,Govana Dam,22,69.8833,C
400,Kotabardi Dam,21.9856,79.0142,D
401,Dongarkheda Dam,22.6242,76.4161,A
402,Manegaon Dam,22.6047,78.7039,B
403,Rajukhedi Dam,22.3319,75.1442,C
404,Semli Dam,21.9853,74.7406,D
405,Amjaon Dam,21.1406,79.7479,A
406,Ranivali Dam,18.0789,73.0592,B
407,Takalibhan Dam,19.5894,74.7833,C
408,Gartek Dam,20.1319,77.5433,D
409,Vilwade Dam,15.8614,73.8839,A
410,Garga Dam,23.6347,86.0705,B
411,Sarai Sawangi Dam,20.8994,78.3146,C
412,Sarola (Osmanabad) Dam,18.2028,76.1469,D
413,Moongthala Dam,24.5078,72.715,A
414,East Varahapallam Weir Dam,11.2314,76.5686,B
415,Dhab Dam,24.0417,83.3822,C
416,Alansagar Dam,22.0764,71.2253,D
417,Kakarhai Dam,23.2817,80.0658,A
418,Gurari Dam,22.9328,77.125,B
419,Nainawad Dam,23.3731,76.2358,C
420,Jhiradiya Dam,22.7558,74.67,D
421,Guradiat Project Dam,23.1669,76.3125,A
422,Goradwadi Dam,17.7589,74.8803,B
423,Thakurwadi Dam,19.2297,73.4203,C
424,Nandgaon Dam,19.3858,78.0678,D
425,Methi Dam,21.2158,74.6286,A
426,Amdari Dam,20.1189,76.4842,B
427,Sirsadi Dam,17.8928,73.3314,C
428,Purada Dam,21.1347,80.3347,D
429,Pimpalgaon Dam,19.7344,78.2894,A
430,Pimprigawali Dam,20.6622,76.6403,B
431,Mandurki Dam,18.4974,76.9128,C
432,Shindi Dam,20.3267,75.0439,D
433,Nandgaon (Aurangabad) Dam,20.5083,75.4028,A
434,Phulambri Dam,20.0647,75.4317,B
435,Suravanala Dam,21.3192,71.6744,C
436,Bhempura Dam,23.4181,73.0092,D
437,Mota-Zinzuda Dam,21.3194,71.3758,A
438,Belgaon Dam,23.7297,79.7531,B
439,Jambar Dam,23.5506,77.755,C
440,Sapahi Dam,24.4097,82.0492,D
441,Bhamat Dam,23.1497,74.7333,A
442,Golai Dam,22.2164,77.9925,B
443,Deopur Dam,24.0444,76.4722,C
444,Kabadia Dam,22.0828,78.9958,D
445,Dungariya Dam,22.7664,79.4278,A
446,Sultanpur Dam,21.8636,76.0514,B
447,Pondi Dam,22.8717,81.7583,C
448,Raitale Dam,19.9336,72.8347,D
449,Kharade Dam,19.4717,73.5533,A
450,Mahadikwadi Dam,17.17,74.6511,B
451,Ghagardara Dam,18.8436,76.9133,C
452,Vyphadpitesur Dam,20.9914,78.9225,D
453,Dongartal Dam,21.5987,79.3584,A
454,Bagalwadi (Patan) Dam,17.1072,74.0619,B
455,Zatamzari Dam,21.5436,78.2425,C
456,Kankadajhara M.I.P Dam,20.8352,85.4963,D
457,Khabhwa Dam,24.6647,82.7983,A
458,Khirihata Dam,24.1161,82.6981,B
459,"Gidda Cheru, Yellareddypet (V) Dam",19.1542,78.3931,C
460,"Gandicheruvu, Verabhadrapuram Dam",16.9991,81.4863,D
461,Kasanpal Dam,18.6883,81.7711,A
462,Chapoli Dam,15.025,74.0456,B
463,Narayanpura Dam,24.5136,79.0689,C
464,Aoda Dam,25.515,76.7858,D
465,Chiraha Dam,24.2711,80.1997,A
466,Chhapani Dam,22.8828,81.5978,B
467,Guddikheda Dam,22.6514,78.2203,C
468,Kodia Dam,23.1614,80.525,D
469,Bohita Dam,22.895,81.6239,A
470,Govindpura Dam,24.0867,77.2767,B
471,Hiwara Dam,21.845,78.3767,C
472,Upper Chraipani Dam,23.9036,79.6022,D
473,Imlikheda Dam,23.3883,76.8592,A
474,Navegaon Dam,20.8244,79.3931,B
475,Berda Dam,21.5122,76.9811,C
476,Rawala Dam,20.5822,75.8419,D
477,Kaykewadi Dam,16.6267,73.6881,A
478,Ozer Dam,16.7639,73.6542,B
479,Kajirne Dam,15.9647,74.1667,C
480,Koduru Reservoir Dam,13.8647,77.7261,D
481,Gogarbham Dam,13.6908,79.3536,A
482,Jesola Kamalpur Dam,23.02,73.5503,B
483,Larwa Dam,22.745,84.7125,C
484,Lapti Dam,22.8458,81.7553,D
485,Jamunia Tola Dam,22.5858,80.5089,A
486,Kanhasagar Dam,21.8592,79.1839,B
487,Tuljapur Dam,20.455,77.9111,C
488,Jakhod Dam,20.6639,74.3306,D
489,Deocope Dam,19.7192,72.8117,A
490,Bomnali Dam,19.0797,77.265,B
491,Mahabaleshwar S.T. Dam,17.9356,73.6686,C
492,Dhagur Dam,20.1083,73.7308,D
493,Maliarajore Dam,23.4495,87.1998,A
494,Nallavagu Dam,18.1703,77.7353,B
495,"Singaraya Project, Kurella(V), Dam",18.1644,79.0922,C
496,Manikpur Dam,20.3394,81.6044,D
497,Risewada Dam,20.3853,81.5981,A
498,Amthane Dam,15.6708,73.9072,B
499,Dabhada Dam,22.8525,74.0508,C
500,Pandarwa Dam,24.3161,83.4292,D
501,Pipaaliya Dam,21.8753,76.8983,A
502,Molipura Dam,22.5722,75.2578,B
503,Humnapath Dam,21.835,78.1942,C
504,Lakhnoute Dam,23.6842,81.4778,D
505,Umaria Dam,22.4303,78.6492,A
506,Chargaon Dam,23.0717,80.2581,B
507,Chhewla Dam,23.4414,79.0019,C
508,Jhalpipli Dam,22.9192,77.3494,D
509,Musai Dam,19.4542,73.4694,A
510,Jalka Dam,20.8833,78.0333,B
511,Ausare Dam,19.0667,73.3433,C
512,Kordi Dam,21.2317,74.0336,D
513,Kuttarwadi Dam,19.2317,74.2297,A
514,Mahur Dam,18.1944,73.0519,B
515,Tembhurwaltri Dam,19.6944,79.3578,C
516,Nadhavade Dam,16.4703,73.6736,D
517,Pawale Dam,19.2958,73.4247,A
518,Ambai Dam,19.9592,73.4778,B
519,Thana Dam,21.15,79.5458,C
520,Panaspal Dam,20.8694,85.3258,D
521,"Pedda Cheru, Iylapur (V) Dam",18.8806,78.7786,A
522,"Pattikondavanka, Guttava Dam",13.4767,79.8397,B
523,Ratadia Dam,21.2167,71.4,C
524,Jalai Dhuleta Dam,23.2531,74.1094,D
525,Deopur Dam,24.1511,77.6161,A
526,Pongri Dam,23.3169,81.4308,B
527,Akhetpur Dam,24.0475,81.4517,C
528,Barbuspur Dam,22.6106,80.4317,D
529,Manpadale Dam,16.8136,74.2217,A
530,Zilpi Dam,21.0633,78.8689,B
531,Rasa Dam,19.9644,78.8508,C
532,Shivdav Dam,16.2378,73.7872,D
533,Hardkhale Dam,16.8208,73.6744,A
534,Waigholpada Dam,20.0922,73.4528,B
535,Suna Dam,19.4133,77.9111,C
536,Shelarwadi Dam,17.9292,74.3322,D
537,Jangaltanda Dam,20.6433,75.6878,A
538,Jagji Dam,18.3558,76.2383,B
539,Upper Suktel Dam,20.7183,82.8811,C
540,Surwal Dam,26.0803,76.3417,D
541,Shivnath Sagar Dam,24.9761,73.2072,A
542,Chigauri Dam,24.6667,82.8031,B
543,Mauvana Dam,23.8319,70.8619,C
544,Kharua Dam,23.1372,69.1239,D
545,Vaghvadarada Dam,21.2717,71.7472,A
546,Khata Dam,23.2628,73.485,B
547,Kulamavu Dam,9.803,76.886,C
548,Kulamavu Saddle Dam,9.8056,76.8878,D
549,Ramgarhi Dam,22.1056,80.6067,A
550,Patharhatta Dam,24.5981,80.6958,B
551,Godaghat Dam,23.795,79.8156,C
552,Gudgaon Dam,21.5972,77.7031,D
553,Bhimori Dam,22.1056,80.6061,A
554,Athawa Dam,22.1794,74.2878,B
555,Karanpather Dam,22.9403,81.3294,C
556,Hydrayasaha Dam,22.9306,80.4425,D
557,Salegaon Dam,21.1539,80.3372,A
558,Sonali Dam,16.4483,74.1744,B
559,Jutpani Dam,21.5089,76.9264,C
560,Dhanora Bhuse Dam,20.3486,77.3822,D
561,Gutti Dam,18.5142,77.2164,A
562,Bhandarwadi Dam,16.8581,73.8453,B
563,Ghumarapadar T. Dam,19.9306,82.4994,C
564,Virani Dam,23.1331,69.3811,D
565,Dodavanta Dam,23.3289,73.62,A
566,Sudra Dam,23.2508,77.7286,B
567,Jalgaon Dam,22.1317,80.3875,C
568,Dudiyankhera Dam,24.3353,79.0836,D
569,Guda Dam,22.3658,74.3089,A
570,Rajli Dam,24.2733,81.1789,B
571,Nandkho Dam,23.2508,77.7286,C
572,Burbhushi Dam,19.275,77.8258,D
573,Sawalikheda Dam,21.3544,76.6939,A
574,Pimpalocal Nallahare Dam,20.1308,73.7778,B
575,Kumbhawade Dam,16.7897,73.7739,C
576,Sakharpa Dam,16.9975,73.6944,D
577,Jambrung Dam,19.0211,73.53,A
578,Rangav Dam,17.2689,73.5964,B
579,Umarani No - 2 Dam,16.8761,75.2522,C
580,"Akkammacheru, Mujahidpur Dam",17.0622,77.5878,D
581,Sodvadar Dam,21.8167,70.35,A
582,Malseoni Dam,22.0414,77.8875,B
583,Thani Dam,21.6589,77.9528,C
584,Pathari Dam,21.8286,79.1972,D
585,Dhupsara Dam,22.8922,81.3425,A
586,Agar Dam,22.3808,74.7978,B
587,Nani Ziri Dam,21.6917,74.8894,C
588,Tanda Dam,23.1928,76.4936,D
589,Khokhara Dam,21.9981,77.7389,A
590,Rampura Dam,23.3075,78.4689,B
591,Persodi Dam,21.2156,78.4289,C
592,Karanjalipada Dam,20.4122,73.7325,D
593,Konde Dam,16.5964,73.5844,A
594,Ghorvadi Dam,18.3061,74.0094,B
595,Bholawali Dam,17.8997,73.3561,C
596,Talere Dam,16.4639,73.635,D
597,Shirdhane Dam,20.9944,74.5414,A
598,Glenmorgan Dam,11.5064,76.6031,B
599,Bara Mandira Dam,23.8329,86.9544,C
600,Konajhir Dam,23.1303,77.0481,D
601,Thanwar (Rajivsagar) Dam,22.59,80.0642,A
602,Belhara Dam,23.4672,79.5078,B
603,Gujramal Dam,21.6444,77.925,C
604,Mohgaon Mali Dam,22.5933,80.3281,D
605,Sadrabadi Dam,21.4447,76.805,A
606,Pelhar Dam,19.4436,72.8964,B
607,Salai Dam,21.4667,76.8667,C
608,Marnewadi Dam,18.4783,73.6372,D
609,Lakikatti Dam,15.9639,74.3358,A
610,Lower Ghatghar Dam,19.5281,73.6467,B
611,Mandwa Dam,19.8167,78.0019,C
612,Ambewadi Dam,19.6097,73.6736,D
613,Waghera Dam,20.0656,73.4958,A
614,Chaker Nalla Dam,22.0625,81.0167,B
615,Khairkheda Dam,20.4053,81.3897,C
616,Bhadhaka Dam,23.0292,73.6925,D
617,Mamuara Dam,23.2775,69.8692,A
618,Gokhalana Dam,21.9844,71.2742,B
619,Sarmariya Dam,23.0244,74.0894,C
620,Prempara Dam,21.2572,70.7119,D
621,Anraj Dam,24.0653,84.8181,A
622,Kheria Dam,25.4731,78.2586,B
623,Hatiyadeli Dam,22.9281,74.6306,C
624,Kacheri Feeder Dam,24.4378,79.3083,D
625,Gondhidhana Dam,22.0464,78.0597,A
626,Nibuha Dam,24.3625,82.0789,B
627,Amlabardia Dam,23.8661,75.9019,C
628,Sundrel Dam,21.875,76.1167,D
629,Girbi Dam,22.9656,81.6658,A
630,Khandezari Dam,20.7158,79.2897,B
631,Nive Dam,17.0392,73.5492,C
632,Upavade Dam,16.6294,74.0306,D
633,Chousala Dam,20.3567,77.5578,A
634,Malatwadi Dam,15.9958,74.3425,B
635,Tarandale Dam,16.3011,73.6719,C
636,Asegaonbandh Dam,20.1461,77.3317,D
637,Molvan Dam,18.7689,76.7578,A
638,Nakti Dam,24.8531,86.4433,B
639,Panchwadi Dam,15.29,74.1017,C
640,Jetawada Dam,23.8719,70.7011,D
641,Bordi Dam,23.5297,73.1803,A
642,Jesar Dam,21.3408,71.6544,B
643,Kalakhetra Dam,24.3381,73.1447,C
644,Thala Dam,22.6,74.1044,D
645,Javeshi Dam,23.1103,74.0736,A
646,Dumduma Dam,25.2456,78.7711,B
647,Bhimpur Dam,21.9256,77.5647,C
648,Hatupur Dam,24.7864,80.4367,D
649,Buddi Dam,22.1319,77.9489,A
650,Saradeh Dam,22.3764,77.7028,B
651,Data Dongari Dam,22.8203,79.1936,C
652,Sakhare Dam,19.9092,72.8133,D
653,Khoch Dam,19.8917,73.4053,A
654,Umate Dam,18.5544,73.0231,B
655,Kunjur-Ii Dam,20.7042,74.9917,C
656,Shirsoli-2 Dam,20.8925,75.5553,D
657,Rahimbad Dam,20.3603,75.7219,A
658,Kolwali Dam,18.5347,74.0178,B
659,Bilwadi Dam,20.4336,73.8503,C
660,Jambonala Dam,20.8269,83.5828,D
661,"Mallareddy Cheru, Bhiknoor Dam",18.2564,78.0392,A
662,Margala Dam,23.0914,74.0567,B
663,Roomal Dam,22.3022,80.0561,C
664,Ahmadpur Dam,22.2217,80.2547,D
665,Laliyachapad Dam,22.3472,75.8839,A
666,Kiloda T. Project Dam,22.6975,76.6675,B
667,Kudri Dam,23.6722,81.5803,C
668,Dalka Banda Dam,23.055,80.6,D
669,Khoripura Dam,22.7869,77.6514,A
670,Dhangaon Dam,23.8472,80.6158,B
671,Talpura Dam,22.7867,77.6503,C
672,Siddhnath Dam,17.0114,75.3622,D
673,Pimpri (Man) Dam,20.2083,77.5014,A
674,Baghirijhola Dam,19.3203,83.0464,B
675,Bhanwar Semla Dam,24.0133,74.7267,C
676,Lakra Dam,24.6411,83.0553,D
677,Uperwah Dam,21.2289,81.1272,A
678,Jatavada-Ii Dam,23.8619,70.7011,B
679,Pedcholi Dam,24.2361,72.6864,C
680,Gonda Dam,23.9931,85.3069,D
681,Jawari Dam,24.0725,77.6728,A
682,Ragura Dam,24.7422,78.8147,B
683,Jalpani Dam,22.7236,80.4708,C
684,Semarwar Dam,24.065,81.8156,D
685,Bagan Dam,22.98,81.6125,A
686,Karoli Dam,22.0761,75.9492,B
687,Limbi Dam,21.9756,74.6756,C
688,Jhamdhar Dam,24.0639,81.8161,D
689,Kohani Deori Dam,23.0958,80.2661,A
690,Sir Pirajirav Talav Dam,16.3917,74.2089,B
691,Purkabodi Dam,20.9962,79.7961,C
692,Khasbahal Dam,20.2067,82.8197,D
693,Masina Nalla Dam,22.1189,83.9836,A
694,Nani Zari Dam,22.7619,73.9081,B
695,Vadal Dam,21.4281,71.8589,C
696,Noonpani Dam,23.8703,79.5883,D
697,Dhamdhusar Dam,23.0322,77.7014,A
698,Datoda Dam,22.5861,75.8733,B
699,Hirawar Dam,24.0564,81.0942,C
700,Matuwa Dam,24.6817,80.3061,D
701,Nandna Dam,21.9372,79.2492,A
702,Sulipada Dam,21.1519,73.8403,B
703,Malkapur Dam,18.3667,75.8944,C
704,Gangaldara Dam,19.1922,73.7403,D
705,Shirpunje Dam,19.4828,73.7778,A
706,Amravatinalla Dam,20.9631,77.8208,B
707,Maharanisagar Dam,19.5425,85.0408,C
708,Lamba Dabra Dam,23.8536,74.625,D
709,Kumaradhara Pushpadhara Dam,13.7286,79.325,A
710,Gouri Dam,20.4417,81.3589,B
711,Bandhara Dam,23.0739,69.7089,C
712,Dholiya Dam,24.3456,72.6039,D
713,Amipur Dam,21.4128,69.9683,A
714,Jamunhai Dam,24.6814,80.3058,B
715,Indra Daman Dam,23.0033,79.8706,C
716,Lonavala Dam,18.7444,73.4019,D
717,Poip Dam,16.1669,73.5861,A
718,Ghotwade Dam,18.6817,73.3161,B
719,Kone Dam,20.0692,73.5247,C
720,Koyali Dam,20.1508,76.8417,D
721,Belunki Dam,17.2542,75.0506,A
722,Shinde (Peth) Dam,20.2219,73.6161,B
723,Dighi - 3 Dam,19.7783,75.115,C
724,Kawara Nalla Dam,21.4311,76.9189,D
725,Pawanar Dam,19.8631,78.795,A
726,Pahari Dam,25.2322,79.135,B
727,"Gattupodichinavagu, Kothapally(V) Dam",18.2575,78.5886,C
728,Mota-Chhaida Dam,22.3056,71.5097,D
729,Chhapari Dam,23.7003,79.9492,A
730,Amadehi Dam,22.6728,78.4378,B
731,Amua Dam,24.3392,80.3322,C
732,Deora Malhani Dam,24.3253,81.2414,D
733,Piplai Dam,23.2933,77.8247,A
734,Bhoj Dam,19.1233,73.2344,B
735,Amboli Dam,19.9961,73.4842,C
736,Khekada Dam,21.1267,73.6639,D
737,Vairagwadi Dam,16.1603,74.3619,A
738,Ranwadi Dam,21.3206,78.4572,B
739,Tisgaon Dam,20.2581,73.9619,C
740,Narsala Dam,20.1244,78.7842,D
741,Nagzari Latur Type Barrage Dam,18.8275,76.9156,A
742,Dunguri M.I.P Dam,18.8167,82.775,B
743,Western Catchment Weir-Iii Dam,11.3332,76.5516,C
744,Srikhandi Dam,24.8925,86.09,D
745,Khunal(Khunsi) T Dam,23.5531,83.2125,A
746,Wamka Dam,23.4247,70.4333,B
747,Vamaka Dam,23.4247,70.4336,C
748,Vanala Dam,22.0572,71.4386,D
749,Vadekhan Dam,21.7944,70.0558,A
750,Chikhali Dam,22.9492,77.5917,B
751,Kolki Dam,21.5456,75.1772,C
752,Mohakhurd Dam,19.7522,73.1022,D
753,Pulas Dam,16.0181,73.8733,A
754,Loni Dam,20.1597,75.2411,B
755,Tulyachapada Dam,19.6336,73.4233,C
756,Bamni Dam,19.2456,77.3494,D
757,Ramaguda Dam,19.3067,84.6922,A
758,Ratnal Dam,23.1956,69.9111,B
759,Dadla Dam,22.9253,74.6919,C
760,Rawanwari Dam,22.025,77.8394,D
761,Jantipur Dam,22.63,80.4239,A
762,Ichhawar Dam,23.0033,77.0194,B
763,Raipura Dam,22.8994,81.0106,C
764,Jatal Nalla Dam,22.145,80.2883,D
765,Donwat Dam,18.7817,73.2556,A
766,Osargaon Dam,16.2006,73.6972,B
767,Lore Dam,16.3867,73.7814,C
768,Kavale Dam,18.6283,73.2331,D
769,Khandala Dam,20.1767,76.5794,A
770,Kadwai Dam,17.2797,73.5647,B
771,Khandala Dam,20.1767,76.5797,C
772,Umrale Dam,20.2531,73.7636,D
773,Rotha -Ii Dam,20.7609,78.5432,A
774,Ibrahimpur Dam,18.6092,77.5553,B
775,Upper Kadwa Dam,17.28,73.5644,C
776,Nagthana - 2 Dam,20.7611,78.5425,D
777,Nagzari Dam,18.8256,76.9194,A
778,Dngaon Project Dam,19.6356,78.3133,B
779,Pathargawan Dam,23.4217,82.5944,C
780,Ayabhandha Dam,20.8592,80.8508,D
781,Surjumi Dam,22.9419,74.0169,A
782,Kevadi Dam,21.3358,73.3981,B
783,Amarpur Dam,22.7753,80.9869,C
784,Kirmala Dam,21.4772,75.2247,D
785,Ubharia Dam,21.8436,78.1522,A
786,Jamli Dam,22.1131,74.1858,B
787,Teergarh Dam,23.9642,79.7222,C
788,Degloor Dam,18.5217,77.5647,D
789,Adegaon Dam,21.3639,79.4861,A
790,Jambhurde Dam,19.1614,73.4958,B
791,Telhara Dam,20.3292,76.3383,C
792,Shivani Dam,17.0111,74.1192,D
793,Taloshi Dam,19.6764,73.6108,A
794,Panchala Dam,20.4947,77.5831,B
795,Bramhanwada Dam,20.3275,76.9697,C
796,Kalasgade Dam,15.8331,74.2178,D
797,Panhale Dam,16.8194,73.5617,A
798,Karambali Dam,16.1989,74.2981,B
799,Khuga Dam,24.2997,93.1501,C
800,Ervangalar Dam,9.6081,77.3014,D
801,Deori Dam,24.705,83.3547,A
802,Chhota Palgi T. Dam,23.1519,83.0997,B
803,Bamathiya-2 Dam,22.0372,70.0533,C
804,Ratona Dam,23.8219,78.6617,D
805,Gondigoulla Dam,21.7933,77.9494,A
806,Bagdia T. No.2 Dam,22.5308,75.3658,B
807,Jhirrya Dam,24.0761,82.1372,C
808,Mahurpada Dam,21.6522,79.4242,D
809,Jambhivali Dam,18.8414,73.1781,A
810,Shendri Dam,16.2714,74.3517,B
811,Vesraf Dam,16.585,73.8675,C
812,Karli Dam,20.2442,77.6258,D
813,Sajgaon Mohadi Dam,20.7108,75.4594,A
814,Sankundeswar Dam,21.5808,84.17,B
815,Nachan Dam,23.6173,87.3215,C
816,Junachay Dam,23.6461,69.0189,D
817,Kanhaiya Dam,24.5753,81.79,A
818,Chithara Dam,24.8761,80.8544,B
819,Dhamnod Dam,23.4331,74.9439,C
820,Kuda Dam,25.4997,77.3733,D
821,Salkanpur Dam,22.7275,77.4978,A
822,Bori Dam,23.4039,76.2297,B
823,Khapabihari Dam,21.8961,79.1139,C
824,Mudana Dam,19.74,77.7617,D
825,Khasapur Dam,18.3053,75.4811,A
826,Khadki Dam,20.9464,78.8681,B
827,Bhagimahari Dam,21.4181,79.1308,C
828,Hatti Dam,21.2194,74.3483,D
829,Kalwande Dam,17.4811,73.4861,A
830,Lingwane Dam,20.1819,73.6172,B
831,Devari Dam,20.8986,75.5911,C
832,Shekapur Dam,20.4544,75.9939,D
833,Umrani Dam,21.8489,74.2139,A
834,Sarekha Dam,21.4714,79.2694,B
835,Malkapur Dam,21.2272,78.1819,C
836,Jambre Dam,15.8886,74.11,D
837,Dhanwad Dam,20.8986,75.5911,A
838,Pimpaldari (Gangakhed) Dam,18.7794,76.7489,B
839,Sakud S.T.- 2 Dam,18.7725,76.4167,C
840,Ratanpar Dam,23.8775,70.3558,D
841,Mathal Dam,23.4333,69.1667,A
842,Dhansarvav Dam,22.435,73.4786,B
843,Bardevla Dam,22.0458,75.5664,C
844,Dagarkot Dam,21.8753,76.7903,D
845,Balua Dam,24.0533,82.4739,A
846,Motipura Dam,23.34,75.7431,B
847,Janala Dam,20.055,79.6083,C
848,Hudi Dam,19.3506,78.0049,D
849,Dhaba Dam,19.6228,79.6822,A
850,Ukarwahi Dam,20.9344,79.25,B
851,Kandari Dam,20.5061,76.5469,C
852,Mogarda Dam,21.4344,76.9369,D
853,Nalegaon Dam,20.1753,73.7122,A
854,Harangaon Dam,20.3297,73.5928,B
855,Shai River Major Project Dam,19.3922,73.6719,C
856,Galan - Ii Dam,20.58,75.2547,D
857,Ashok Nalla Dam,19.8894,85.2089,A
858,Sindhua M.I.P Dam,21.4089,86.6644,B
859,Kotra Khambha Dam,25.2233,81.4247,C
860,Chilputi Dam,19.6389,81.7139,D
861,Bhagwantola Dam,20.6939,80.7228,A
862,Chatania Ghat Dam,24.4508,83.5644,B
863,Sengulam Dam,10.0108,77.0328,C
864,Geolari Dam,24.2781,79.2356,D
865,Wardha Dam,21.7917,78.4006,A
866,Bodli T-1 Dam,22.735,75.0717,B
867,Sitadongari Dam,22.1356,80.4561,C
868,Tandikhurd Dam,24.0361,76.8294,D
869,Chainpur Dam,22.87,76.8772,A
870,Sawarpani Dam,21.2333,77.2269,B
871,Botezari Dam,20.7447,79.3286,C
872,Wasur Dam,18.5722,77.4028,D
873,Kolthan Dam,19.9611,75.3969,A
874,Borda Dam,19.9803,78.8322,B
875,Haralkhed Dam,20.6161,76.2072,C
876,Karada Dam,20.0289,76.7728,D
877,Julugade-I Dam,15.8533,74.2269,A
878,Kushivali Dam,19.1361,73.1722,B
879,Nvagaon Dam,23.215,74.3522,C
880,Sankara Samudram Balancing Reservoir Dam,16.3894,77.9567,D
881,Subbaraya Balancing Reservoir Dam,14.815,77.8886,A
882,Panagar Dam,23.2661,80.0206,B
883,Pindaraikala Dam,21.9975,79.0444,C
884,Urdan Dam,21.9058,77.8392,D
885,Jharegaon Dam,21.9056,77.8389,A
886,Sarangpur Dam,23.5231,80.3883,B
887,Chinchwad Dam,20.0861,73.475,C
888,Chinchwad Dam,20.0861,73.475,D
889,Aswali Dam,20.0867,72.8058,A
890,Vinhere Dam,17.9086,73.4008,B
891,Govindpur Dam,18.4483,76.0922,C
892,Watul Dam,17.0167,74.1846,D
893,"Pedda Cheru,Lokaram(V), Dam",17.2403,80.5222,A
894,N.T.R. T.G.P-Subsidiary Reservoir No 2 Dam,14.7903,78.7986,B
895,Sukhpur Dam,21.2178,70.9683,C
896,Dhablamata Dam,23.0475,77.0719,D
897,Patajan Dam,21.8722,76.8633,A
898,Pankua 1 Dam,22.5414,76.2844,B
899,Nani Barwani Dam,22.0103,74.8808,C
900,Fulmari Dam,20.0894,77.5433,D
901,Gondegaon Dam,20.4931,75.2428,A
902,Awashi Dam,17.8917,73.2869,B
903,Kondoshi Dam,16.1972,74.0097,C
904,Karli Dam,21.5028,79.6625,D
905,Kumbhe Hydro Electrict Project Dam,18.3136,73.3769,A
906,Sundi Dam,15.9261,74.3819,B
907,Panda Dam,23.2219,74.6714,C
908,Mambazhathuraiyar Dam,8.2322,77.3792,D
909,"Pedda Cheru, Kodad Dam",17.0022,79.9661,A
910,Taracol (N.F) Dam,24.8361,85.9956,B
911,Surhi Dam,21.6803,80.9333,C
912,Left Banki Dam,24.2306,83.4772,D
913,Dhamnod Nalla Dam,22.0728,75.4786,A
914,Kusmeli Dam,22.9006,77.8133,B
915,Bharra Dam,24.3847,82.2628,C
916,Silpari Dam,23.4461,81.4419,D
917,Kathotia Dam,23.4461,81.4419,A
918,Parsora Dam,23.2294,78.6497,B
919,Katra Dam,24.19,80.2569,C
920,Somthana Dam,19.0736,77.6708,D
921,Ghatana Dam,20.2458,78.1175,A
922,Manoli Dam,16.9453,73.8017,B
923,Dindalkop Dam,16.0056,74.4394,C
924,Fattu Naik Tanda Dam,18.8586,77.0147,D
925,Palaskheda Dam,19.7514,76.3225,A
926,Jamunabandha Dam,20.4833,85.5178,B
927,Rampur Kalyangarh Dam,25.0239,81.0361,C
928,Nirachindli Dam,20.0483,81.5942,D
929,Kakari Mahudi Dam,23.4131,73.6292,A
930,Sabli Dam,21.2667,70.3333,B
931,Fategadhi Dam,23.22,74.0781,C
932,Jhagariya Dam,22.9003,77.8142,D
933,Rampur Dam,22.6717,74.5383,A
934,Sonkhedi Dam,21.8139,78.3125,B
935,Dadanzari Dam,21.1556,79.7564,C
936,Bhisi Dam,20.6358,79.3806,D
937,Ganeshpur Dam,19.9894,76.7383,A
938,Mahim Kelwa Dam,19.6333,72.8186,B
939,Mogarda Dam,21.5167,76.9167,C
940,Oturvaghadara Dam,19.2744,74.0192,D
941,Ganeshpur Dam,19.9894,76.7381,A
942,Ghatkarwadi Dam,16.0442,74.0725,B
943,Nimkhedi Dam,20.4925,75.2394,C
944,Bramha Dam,20.0472,77.2453,D
945,Bhildongar Dam,20.1856,77.4442,A
946,Pimpalgaon (Nandgaon) Dam,20.5781,77.7244,B
947,Ambad Dam,20.3676,73.6621,C
948,Panaskhal Dam,20.0872,84.8967,D
949,Chaparwara Dam,26.6214,75.2575,A
950,Bhatia Dam,23.7814,74.4747,B
951,Dimu Dam,23.4249,85.9802,C
952,Gorkha Bandha Dam,23.8553,80.1933,D
953,Madhwani (Ncfl) Dam,24.2314,81.3178,A
954,Shobhapur Dam,22.0783,78.0117,B
955,Chidua Dam,24.7794,80.5933,C
956,Jogli Dam,21.97,77.7189,D
957,Pipriyatola Dam,22.2939,79.41,A
958,Malegaon Dam,20.93,77.9631,B
959,Krishnapuri Dam,20.9653,74.6744,C
960,Sheldi Dam,17.6381,73.53,D
961,Titavi (Akole) Dam,20.3811,73.7297,A
962,Jharanai Dam,19.6686,84.8767,B
963,Kalakala Dam,20.6989,85.9578,C
964,Motipura Dam,25.7078,74.4742,D
965,Kaliakuva Dam,22.7519,73.7203,A
966,Jaipur Dam,23.1719,84.2792,B
967,Dinora Dam,25.4558,78.32,C
968,Chhaya Sagar Dam,24.3078,81.1311,D
969,Deori Dam,23.9956,76.4997,A
970,Bourani Dam,22.6833,76.5386,B
971,Dokerwani Dam,22.8908,74.7239,C
972,Rajoki Dam,20.6931,80.2311,D
973,Mondgaon Dam,20.1547,76.2992,A
974,Walen Dam,18.5719,73.5083,B
975,Dhodho Dam,20.0836,76.7167,C
976,Ijoli Dam,16.7556,73.8836,D
977,Gavadi Dam,16.8319,73.7554,A
978,Sukhra Dam,24.795,82.2767,B
979,Khandeha Dam,25.1839,81.2672,C
980,Rajban Dam,24.5992,83.0372,D
981,P.V. Pakhanjore Dam,19.7433,81.1889,A
982,Bankuiya Dam,24.5981,81.1875,B
983,Temni Dam,21.8878,78.9658,C
984,Chapper Dam,22.9897,76.8019,D
985,Ganeshpura Dam,24.1158,76.7781,A
986,Achler Dam,17.7244,76.3869,B
987,Chinchala Dam,20.7583,79.34,C
988,Eklahare Dam,20.4108,73.7542,D
989,Khumari (Ramtek) Dam,21.4808,79.2811,A
990,Hanabarwadi Dam,16.2942,74.325,B
991,Lakkadkot Dam,19.6661,78.1133,C
992,Doma Dam,21.5453,77.5611,D
993,Borda Dam,23.7706,74.3036,A
994,"Chegaon Project, Chegaon(M) Dam",18.9456,79.3667,B
995,"Namaz Cheru, Gambhiraopet (V) Dam",18.3211,78.5692,C
996,Facharia Dam,23.0031,69.7639,D
997,Darsadi Dam,23.0689,69.4,A
998,Pariat Dam,23.2292,80.1306,B
999,Kumharwara Dam,23.8142,80.1925,C
1000,Moondla Dam,22.9369,76.9378,D
1001,Khatkar Dam,22.4111,79.4628,A
1002,Hathidagar Dam,22.3225,75.765,B
1003,Khandawad Dam,22.7883,77.5847,C
1004,Ashti Dam,21.2089,78.1931,D
1005,Lohatwadi Dam,20.4847,77.79,A
1006,Gadhawali Dam,21.6594,74.2481,B
1007,Sonkhadki Dam,21.1186,73.8781,C
1008,Chanai Dam,18.7364,76.3581,D
1009,Odhare Dam,20.3501,74.93,A
1010,Mendipada Dam,21.2842,74.0636,B
1011,Zatala Dam,19.9767,78.2686,C
1012,Sirsi Dam,20.5944,78.9275,D
1013,Janauri Dam,31.7133,75.9031,A
1014,Jainti Dam,30.8142,76.7803,B
1015,Nagda Dam,23.1681,74.4997,C
1016,Lhasi Dam,24.5828,76.7,D
1017,Khandi Dam,22.4756,73.775,A
1018,Khandi Dam,22.475,73.775,B
1019,Sudhari Nala Dam,24.3428,84.8786,C
1020,Rampa Dam,23.9669,82.5017,D
1021,Mehra Khapa Dam,21.5625,78.6847,A
1022,Harithone Dam,24.9822,78.0022,B
1023,Jhandatola Dam,22.8192,80.7147,C
1024,Kishanpur Dam,22.81,79.1464,D
1025,Amgaon Ponger Dam,22.2811,79.1008,A
1026,Bhawanikheda Dam,23.8544,78.155,B
1027,Mordongri Dam,21.5672,78.57,C
1028,Shindgi Dam,19.7106,78.0692,D
1029,Tringalwadi Dam,19.7308,73.5564,A
1030,Chorkund Dam,20.1725,78.3558,B
1031,Gandhari Dam,21.1014,79.9244,C
1032,Parunde Dam,19.1406,73.8236,D
1033,Padalpur Dam,21.6572,74.2364,A
1034,Mahupada Dam,21.5558,73.9103,B
1035,Sindgi Dam,19.7097,78.07,C
1036,Kodali (Udgir) Dam,18.4669,77.2219,D
1037,Morwania Dam,23.7619,74.5703,A
1038,Muirpur Dam,24.1103,83.0564,B
1039,"Pedda Cheru, Yelupugonda Dam",18.0339,77.9958,C
1040,Temarain Dam,23.9981,84.0031,D
1041,Naharkheda Dam,23.9097,76.0564,A
1042,Jhonsli Dam,22.9356,74.6478,B
1043,Saikheda Dam,20.1189,78.4869,C
1044,Gambhari Dam,21.5108,76.8064,D
1045,Dharur Dam,21.1881,77.0561,A
1046,Wakwad Dam,18.5456,75.6961,B
1047,Moygaon Dam,20.7197,75.7522,C
1048,Bahada Dam,21.4969,78.1919,D
1049,Kodabahal Dam,19.9917,82.9342,A
1050,Garhwa Dam,25.2131,81.4464,B
1051,Jalkund Dam,25.235,86.5358,C
1052,Toda Dam,21.62,71.8867,D
1053,Tidki Dam,22.6578,73.9225,A
1054,Donger Bodi Dam,21.9789,80.8531,B
1055,Mandwajhiri Dam,21.6539,80.4672,C
1056,Lakhapur Dam,21.9314,78.0422,D
1057,Phaliamao Dam,22.3372,74.0917,A
1058,Asawati Dam,24.1772,75.5183,B
1059,Mandevi Dam,21.6717,77.8986,C
1060,Ahirkheda Dam,21.9819,75.8797,D
1061,Khadda Dam,23.9661,81.4672,A
1062,Amthana Dam,19.2742,77.8533,B
1063,Davalgaon Dam,18.9328,77.0636,C
1064,Dongargaon Dam,17.4494,75.465,D
1065,Karewadi Dam,18.8706,76.2969,A
1066,Tintraj Dam,18.6333,75.4992,B
1067,Surabardi Dam,21.1583,78.9358,C
1068,Bramhanwada Dam,20.3431,76.5103,D
1069,Wagajwadi Dam,18.1917,73.9847,A
1070,Dhormal Dam,20.9883,76.0822,B
1071,Mohijaparanda Dam,18.7383,77.0711,C
1072,Chhamundia Dam,22.035,86.1003,D
1073,Bhallughai Dam,19.2306,84.6,A
1074,Kargara Dam,24.6083,82.9842,B
1075,Gointha Dam,25.6081,83.4939,C
1076,Hathaikheda Dam,23.2683,77.4978,D
1077,Fatehpur Dam,24.0361,76.4764,A
1078,Doulatpura Dam,22.6,74.7,B
1079,Kohdarh Dam,21.6319,76.3761,C
1080,Satighat Dam,20.8931,79.4147,D
1081,Kotwalbordi Dam,21.2131,78.7631,A
1082,Chilgaon Dam,20.6967,75.6122,B
1083,Barkheri Dam,24.8714,74.7278,C
1084,Karakachhar T. Dam,22.6325,83.4597,D
1085,Ramchandrapur T. Dam,23.9422,83.4931,A
1086,Chandra Nagar T. Dam,23.9419,83.4931,B
1087,Jamli Dam,22.5125,73.9858,C
1088,Kaliakota Dam,22.9339,73.9703,D
1089,Kyragunda Saddle Dam,13.7458,75.0086,A
1090,Bithlee Dam,21.98,80.85,B
1091,Rajdhana Dam,22.5456,79.1939,C
1092,Magjipada Dam,22.7744,75.1461,D
1093,Dheku Dam,20.1,74.9347,A
1094,Mulzara Dam,19.3533,77.9747,B
1095,Gaolandoh Dam,21.4442,76.7839,C
1096,Aland Dam,20.2017,75.545,D
1097,Rajur Dam,20.4003,78.3989,A
1098,Bhilkhed Dam,21.2039,77.1186,B
1099,Ghorpadi Dam,17.1878,74.9831,C
1100,Karanjiwane Dam,16.3553,74.2239,D
1101,Malegaon Dam,20.2233,76.9933,A
1102,Phaye Dam,16.2825,74.06,B
1103,Pilandri Dam,20.9222,79.7772,C
1104,Davha Dam,20.3006,77.0442,D
1105,Zotingdhar Dam,20.2458,78.4733,A
1106,Runugaon Dam,22.2894,84.2597,B
1107,Himmatgarhi Dam,23.1203,74.3594,C
1108,Saprar Dam,25.2089,79.0994,D
1109,Balui Dam,24.5435,83.1261,A
1110,Komsettipally Project Dam,17.6278,77.8242,B
1111,Kalyanpar Dam,23.5978,70.6692,C
1112,Daria Dam,21.6886,73.3922,D
1113,Bhutia Nalla T. Dam,22.0514,76.3364,A
1114,Utekheda Dam,21.9069,75.9839,B
1115,Hedapura Dam,23.755,77.1211,C
1116,Murgiri Dam,23.2586,80.9267,D
1117,Pulpuldoh Dam,22.005,79.0483,A
1118,Suwardhara Dam,21.4917,79.1211,B
1119,Paldhag Dam,20.4667,76.4456,C
1120,Visakhar Dam,18.6119,73.41,D
1121,Perch Dam,30.8164,76.8078,A
1122,Ghughwa Dam,21.5961,81.7594,B
1123,Panchavada Dam,21.6889,71.8844,C
1124,Kosania Dam,22.0586,74.2372,D
1125,Bandha Dam,22.9425,79.4764,A
1126,Chateni Dam,24.1639,81.2786,B
1127,Shetfal Dam,18.0217,74.9639,C
1128,Ganeshpur Dam,20.4361,75.3739,D
1129,Pawana Dam,19.3311,77.8683,A
1130,Chandas Wathod Dam,21.4531,78.3431,B
1131,Shivani (Kelapur) Dam,20.1583,78.4306,C
1132,Highwavys Dam,9.6483,77.3606,D
1133,Wandh-Mandvi Dam,23.0289,69.3939,A
1134,Kairabani Dam,24.1697,87.44,B
1135,Kasturipura Dam,24.0594,76.9522,C
1136,Sirjagaon Dam,21.9311,78.0431,D
1137,Jojharpur Dam,23.3544,78.1708,A
1138,Dudhana Dam,20.2103,78.3428,B
1139,Khamkheda Dam,19.4247,77.3594,C
1140,Wadod Dam,20.4347,75.375,D
1141,Takali Dam,20.0875,75.2186,A
1142,Salgara Dam,18.7297,77.4453,B
1143,Pedgaon Dam,19.8172,77.2392,C
1144,Hiwara Dam,20.6058,75.6761,D
1145,Borgaon Dam,20.2519,77.0692,A
1146,Padasali Dam,16.7,73.8428,B
1147,Wadji Dam,18.4342,75.7731,C
1148,Harwant Dam,22.2961,73.9117,D
1149,Bavka Dam,22.7756,74.1806,A
1150,Bhikund Dam,21.0756,77.8872,B
1151,Shampur Dam,22.7486,77.1325,C
1152,Laduna Dam,23.9839,75.3439,D
1153,Pangadi Dam,21.4142,80.1089,A
1154,Pimparkhed Dam,19.932,76.2378,B
1155,Adeli Dam,15.9294,73.7278,C
1156,Ratanwadi Dam,20.1139,77.5322,D
1157,Wadiwarhe Dam,19.8633,73.6653,A
1158,Yenechiwandi Dam,16.1747,74.4331,B
1159,Kanjkheda Dam,20.2458,75.1942,C
1160,Khanderajuri Dam,16.9017,74.7928,D
1161,Biladi Dam,20.9625,74.8111,A
1162,Alangun Dam,20.5517,73.565,B
1163,Morwad Dam,18.5986,76.4597,C
1164,Khatia Dam,23.7406,74.4319,D
1165,Nandhelao Dam,22.7222,74.2117,A
1166,Gyaraspura Dam,23.4342,77.1733,B
1167,Jamuniya (K) Dam,22.3022,75.7664,C
1168,Mehgawan Dam,23.1828,80.1347,D
1169,Machhalgaon Dam,21.9503,76.0483,A
1170,Tulshi Dam,19.1936,72.9122,B
1171,Ramshej Dam,20.0958,73.7661,C
1172,Kandali Dam,19.185,77.82,D
1173,Bhulgad Dam,20.2703,78.5983,A
1174,Kinhi Dam,20.0344,78.3597,B
1175,Nishanghat Dam,20.8139,79.1086,C
1176,Ghonshi Dam,18.5214,77.1572,D
1177,Diggi Dam,17.7158,76.69,A
1178,Ghorale Dam,19.2608,73.3378,B
1179,Virdi Dam,15.6489,74.0706,C
1180,Bhongwali Dam,18.1922,73.9856,D
1181,Kholsar Dam,20.8339,75.1439,A
1182,Saleran Dam,31.6018,75.9931,B
1183,Himayatsagar Dam,17.33,78.3639,C
1184,Baliyawad Dam,21.5925,70.5669,D
1185,Chirchitta Dam,22.9958,79.5469,A
1186,Gopinathpur Dam,22.2111,78.0225,B
1187,Rengepar Kotha Dam,21.1336,79.8194,C
1188,Wani Dam,20.6197,79.3014,D
1189,Junewahi Dam,21.2769,78.5233,A
1190,Harashi Dam,21.0483,78.3403,B
1191,Junewadi- Ii Dam,21.2769,78.5228,C
1192,Nanduri (Dharni) Dam,20.4169,73.9042,D
1193,Doul Hipparga Dam,18.3636,77.2,A
1194,Kalgaon Dam,17.1557,73.9521,B
1195,Lakhaparbat Dam,20.6494,83.8208,C
1196,Mahadev Nalla Dam,24.5717,72.8119,D
1197,Bamathia-1 Dam,22.0425,70.0425,A
1198,Banna Dam,22.0797,80.5353,B
1199,Amlipada-I Dam,22.9125,75.1322,C
1200,Rampura Dam,24.5789,80.0739,D
1201,Borli Dam,21.6944,75.0408,A
1202,Sadwa Dam,24.4664,79.2797,B
1203,Chikhali Dam,20.3458,76.2728,C
1204,Jaldhara Dam,19.3944,78.1058,D
1205,Mahurkund Dam,21.5228,78.9983,A
1206,Jategaon Dam,20.1006,73.5106,B
1207,Shirwade Dam,21.3417,74.1047,C
1208,Tangar Dam,17.8756,73.2772,D
1209,Yermala Dam,18.3869,75.8503,A
1210,Moravane Dam,17.5508,73.5989,B
1211,Abhanpur Dam,21.46,74.7039,C
1212,Ambona Dam,19.6128,77.7131,D
1213,Amabeda Dam,20.0872,81.3286,A
1214,Revania Dam,22.2061,71.3567,B
1215,Veluthode Dam,9.3017,77.0392,C
1216,Padhar Dam,22.0478,77.8736,D
1217,Jhirikhapa Dam,21.8611,78.1186,A
1218,Chichwari Dam,22.3556,77.7189,B
1219,Zadi Dam,22.3033,75.655,C
1220,Thara Dam,24.9022,79.685,D
1221,Kamtha Dam,18.0769,76.0564,A
1222,Usgaon Dam,19.47,73.0097,B
1223,Rajura Dam,19.7822,79.3689,C
1224,Megholi Dam,16.1869,74.1167,D
1225,Sai Dam,18.1869,73.1917,A
1226,Nanduri Dam,20.4228,73.8944,B
1227,Amboli (Murud) Dam,18.3167,73,C
1228,Halda Jalki Dam,20.5008,75.6289,D
1229,Sanasialinai Dam,21.9847,86.1719,A
1230,Sunaghai M.I.P Dam,21.2131,86.2603,B
1231,Chennapatnam Cheruvu Dam,13.4517,78.8217,C
1232,Lorgora Dam,22.5819,85.9519,D
1233,Padar Dam,24.6081,81.8239,A
1234,Chaidipura Dam,22.3611,75.6597,B
1235,Bori Dam,22.6131,76.4003,C
1236,Purwa Dam,24.7936,81.2483,D
1237,Haridi Dam,23.2989,81.4447,A
1238,Anjana Dam,20.5111,75.2981,B
1239,Dhangarwadi Dam,16.0611,74.0944,C
1240,Jagpura Dam,23.8569,74.3486,D
1241,Pili Dam,29.3561,78.7914,A
1242,Nadia Dam,22.9292,79.4567,B
1243,Mohada Dam,22.84,81.0803,C
1244,Beni Bari Dam,22.9064,81.325,D
1245,Amlipada-2 Dam,22.9075,75.1297,A
1246,Bharti Dam,17.9103,76.0289,B
1247,Ner Dam,20.4744,77.8617,C
1248,Ambatkhol Dam,17.3672,73.5494,D
1249,Kandalgaon Dam,16.6322,74.2467,A
1250,Jawala Dam,19.892,76.7145,B
1251,Ambhore Dam,19.9392,76.5089,C
1252,Pimpalgaon Golait Dam,20.7515,75.7219,D
1253,Poigaiyar Dam,8.2683,77.5089,A
1254,Zalu Dam,23.4894,69.3275,B
1255,Nyari Ii Dam,22.3625,70.6708,C
1256,Pipariya Jugraj Dam,23.6097,79.6653,D
1257,Barkhedi Dam,23.1564,77.1239,A
1258,Amrabad Dam,23.3036,77.8858,B
1259,Guradia Surdas Dam,23.1567,76.3036,C
1260,Nichapur Dam,19.7378,78.0892,D
1261,Rabhang Dam,21.4306,76.8725,A
1262,Georai Dam,19.7053,75.4897,B
1263,Dattapur Dam,20.4081,78.3211,C
1264,Kondivali Dam,17.6817,73.3908,D
1265,Langdi Bhavan Dam,21.57,74.7242,A
1266,Chandrawal Dam,25.4472,79.8958,B
1267,Vagadi Dam,23.5844,73.1558,C
1268,Bardha Dam,23.8506,77.6061,D
1269,Lasudiakangar Dam,22.9883,77.0625,A
1270,Surajpura Dam,23.0697,74.6519,B
1271,Pethsangvi Dam,17.9689,76.5511,C
1272,Borgaon (Sangli) Dam,17.0144,74.7708,D
1273,Haldani Dam,21.1442,73.9653,A
1274,Khirad Dam,20.448,73.8235,B
1275,Anandawadi (Jalkat) Dam,18.175,77.0167,C
1276,Burambal Dam,16.8233,73.8858,D
1277,Adsulwadi Dam,18.6061,75.9172,A
1278,"Danpakanicheru, Allapur Dam",17.0917,77.9186,B
1279,Papavinasanam Dam,13.7194,79.3436,C
1280,Mankeshwari Dam,20.2467,81.465,D
1281,Goyasundal Dam,22.6325,73.6906,A
1282,Mausandha Dam,23.7108,79.9192,B
1283,Dongergaon Dam,21.8403,79.0889,C
1284,Kallur Dam,18.4719,77.0814,D
1285,Manivali Dam,19.29,73.5933,A
1286,Dongargaon Dam,20.0928,75.4644,B
1287,Lodhe Dam,17.0889,74.6697,C
1288,Wasni Dam,21.1703,77.5447,D
1289,Konheimunda Dam,19.2311,82.5225,A
1290,Kusumijore M.I.P Dam,19.2308,82.5222,B
1291,Narson Dam,24.6211,83.28,C
1292,Panihari Dam,24.1689,72.6506,D
1293,Nagda Dam,22.9083,76.0583,A
1294,Datia Dam,23.9339,79.6397,B
1295,Vagadalwadi Dam,21.8592,75.1011,C
1296,Kambali Dam,18.9339,75.01,D
1297,Naikwadi Dam,20.0947,73.6403,A
1298,Khadakjam Dam,20.2503,74.0694,B
1299,Pentipakka Dam,18.7842,80.03,C
1300,Wahad Dam,18.7489,77.1042,D
1301,Osram Dam,16.4303,73.6475,A
1302,Shelbari Dam,20.8369,74.1431,B
1303,Waigoul Dam,20.1408,77.6461,C
1304,Sadagaon Ladachi Dam,20.1047,73.6167,D
1305,Chikhali Dam,20.1886,77.6108,A
1306,Jalchakra Dam,20.8761,75.9344,B
1307,Jalchakra Dam,20.8761,75.9344,C
1308,Kalanaju M.I.P Dam,20.1147,84.3203,D
1309,Ratia Dam,23.2736,69.5967,A
1310,Badargadh( Shiv) Dam,23.4569,70.6153,B
1311,Aamli Chharchhoda Dam,22.7167,74.1833,C
1312,Anida Dam,21.9969,70.7319,D
1313,Dhavada Dam,23.3,69.3089,A
1314,Gangajali Dam,22.2797,75.3575,B
1315,Navegaon Dam,22.0264,79.0414,C
1316,Pingori Dam,18.2275,74.1208,D
1317,Dahad Dam,20.4947,76.0589,A
1318,Babulgaon Dam,20.0633,75.5228,B
1319,Chorbahuli Dam,21.4725,79.3283,C
1320,Khed Dam,19.6506,73.6992,D
1321,Asane Dam,16.175,73.8611,A
1322,Girsawadi Dam,20.0842,75.5519,B
1323,Eklara Dam,20.4042,78.4333,C
1324,Bhonka Dam,25.0683,82.575,D
1325,"Rallakalva, Kaliyambaka Dam",13.3217,79.7364,A
1326,Babhani Khand Dam,24.3014,83.5136,B
1327,Mand Dam,22.4756,80.5117,C
1328,Kohpani Dam,22.5928,78.5797,D
1329,Ekrukh Dam,17.7383,75.9092,A
1330,Bhose (Sangli) Dam,16.9586,74.7475,B
1331,Raibasa Dam,21.4717,78.8403,C
1332,Piranji Dam,19.6231,77.7992,D
1333,Nileli Dam,16.0389,73.8467,A
1334,Hasol (Asga) Dam,16.6125,73.6372,B
1335,Nara Dam,31.55,76.0403,C
1336,Dudka Ii Dam,23.8119,74.3378,D
1337,Bankali Dam,25.7036,72.8833,A
1338,Demali Dam,22.8883,73.5947,B
1339,Bochka Dam,22.725,74.7119,C
1340,Lolki Dam,23.8858,76.1178,D
1341,Bamera Dam,23.7775,80.9869,A
1342,Junewani Dam,21.6497,78.5289,B
1343,Kuni Dam,23.4847,81.4522,C
1344,Wathod Dam,20.2583,77.5681,D
1345,Bhokarbari Dam,20.9172,75.1133,A
1346,Raidhok Dam,20.5061,76.6167,B
1347,Itkal Dam,17.7867,76.1461,C
1348,Dundhe Dam,20.6067,74.3886,D
1349,Asolagavha Dam,20.1606,77.5083,A
1350,Wadzire Dam,19.9097,73.9614,B
1351,Dogari Dam,18.0278,76.0978,C
1352,Tawshigad Dam,17.9642,76.4,D
1353,Lodhighat Dam,24.7853,83.1061,A
1354,Kangsabati Kumari Dam,22.9639,86.7889,B
1355,Machhaliwad Dam,22.1544,70.3106,C
1356,Nal Dam,21.3425,71.5617,D
1357,Boudha Dam,24.0492,85.6215,A
1358,Fatepur Dam,22.9322,80.6858,B
1359,Sukta Dam,21.5853,76.2719,C
1360,Rawangaon Dam,19.3728,77.5575,D
1361,Borgaon Manju Dam,20.6944,77.1367,A
1362,Hanegaon-Ii Dam,18.3481,77.4328,B
1363,Lahasar Dam,20.7922,75.8383,C
1364,Dhamangaon Deshmukh Dam,20.6419,76.2836,D
1365,Mohali Dam,18.6819,75.9022,A
1366,Kolambi Dam,20.2456,77.3569,B
1367,Sher Dam,24.1642,81.82,C
1368,Keli Dam,21.8211,74.7733,D
1369,Baliya Dam,24.0869,82.5025,A
1370,Pophali Dam,19.6911,77.6114,B
1371,Punadi Dam,17.0642,74.625,C
1372,Karandewadi Dam,17.3656,74.2822,D
1373,Ansing Dam,20.0331,77.3364,A
1374,Dharpimpri Dam,20.2106,76.8847,B
1375,Nideban Dam,18.3747,77.1492,C
1376,Velvatti Dam,16.1142,74.1644,D
1377,Deojharan Dam,21.2311,84.1653,A
1378,Karada Dam,20.4742,85.3944,B
1379,Kurud Dam,21.2644,81.7944,C
1380,Khodasar Dam,23.3883,70.6569,D
1381,Bharad Dam,21.3839,71.0186,A
1382,Manari Dam,21.3667,72.1333,B
1383,Likhala Dam,21.2764,71.4583,C
1384,Mohgaon Dam,22.6633,79.9228,D
1385,Chirkhan Dam,22.1233,76.4214,A
1386,Kundujeta Dam,22.3928,74.8403,B
1387,Chirkhan Dam,22.1233,76.4219,C
1388,Mohari Dam,20.3494,77.4061,D
1389,Adivali Dam,19.4314,73.5253,A
1390,Kalwati Dam,18.7678,76.3997,B
1391,Tumdih Dam,22.0756,83.33,C
1392,Virpur Dam,23.8858,73.2892,D
1393,Kathawad Dam,22.1083,74.2078,A
1394,Mudiakheri Dam,23.3494,78.1086,B
1395,Dhanora Dam,21.0688,76.4639,C
1396,Gautala Dam,20.3022,75.1417,D
1397,Koragaonwadi Dam,17.8681,76.6061,A
1398,Gahula Dam,20.5522,75.4278,B
1399,Sisaudegaon Dam,20.6656,77.1147,C
1400,Bhaluguda Dam,19.6166,83.6671,D
1401,Bisrapada M.I.P Dam,22.3442,84.7867,A
1402,Pharaspal Dam,18.9386,81.2569,B
1403,Dhariya Dam,22.4586,73.6661,C
1404,Karmadiya Dam,21.3258,71.7872,D
1405,Madarniya Dam,21.9792,75.3814,A
1406,Amerbegwa Dam,21.9797,75.3814,B
1407,Patapra Dam,23.3056,80.2325,C
1408,Sawangi Dam,20.8958,78.3092,D
1409,Ghatkhed Dam,20.9351,77.8509,A
1410,Gothangaon Dam,20.9053,79.5336,B
1411,Manora Dam,19.8822,79.4967,C
1412,Amba Dam,20.3075,75.0303,D
1413,Singandoh Dam,20.2819,77.4375,A
1414,Bokani Dam,18.4522,77.0117,B
1415,Hateghar Dam,17.865,73.8161,C
1416,Berdewadi Dam,16.8611,73.6131,D
1417,Pralhadpur Dam,20.3011,75.7564,A
1418,Debijhara Dam,19.7236,85.1175,B
1419,Tikilipada Dam,21.5089,84.4347,C
1420,Juna Malari Dam,25.1433,73.4361,D
1421,Chikhali Dam,20.5483,81.0808,A
1422,Dhaniyawala Dam,22.0425,73.9003,B
1423,Kotda Dam,22.1833,71.3667,C
1424,Kunda Dhamena Dam,23.0714,74.0353,D
1425,Bhalur Dam,18.8214,76.1519,A
1426,Kanhadevi Dam,21.444,79.0919,B
1427,Surnerwadi Dam,18.8728,76.2047,C
1428,Zinzari Dam,22.52,73.6742,D
1429,Baukha Dam,23.3142,69.5636,A
1430,Limdi Doli Dam,23.0711,73.8981,B
1431,Poiadonger Dam,24.2403,75.7464,C
1432,Barodia Dam,23.6531,77.0444,D
1433,Harratola Dam,22.9369,81.5656,A
1434,Unhere Dam,18.5639,73.2092,B
1435,Zola Dam,20.4617,78.1647,C
1436,Palaswade Dam,20.0589,75.145,D
1437,Barwatola Dam,24.0614,83.1142,A
1438,Kosani Saddle Dam,11.6192,75.9206,B
1439,Kutari Nalla Dam,22.0464,80.4319,C
1440,Birul Dam,21.8981,76.0686,D
1441,Pota Dam,19.3142,77.7789,A
1442,Kaneriwadi Dam,16.6286,74.2822,B
1443,Sondo Dam,19.6494,79.2544,C
1444,Hadga Dam,18.1889,76.7156,D
1445,Chaigaon Dam,20.1536,76.4881,A
1446,Balimela Dam,18.2444,82.1845,B
1447,Amli Kheda Dam,23.7675,74.7011,C
1448,Rajkhar Dam,24.2286,83.1927,D
1449,Mankuwa Dam,23.2189,69.5519,A
1450,Isar Dam,21.3964,73.3133,B
1451,Balwantpura Dam,24.8383,79.0814,C
1452,Anjandoh Dam,19.9833,75.5633,D
1453,Mahukhada Dam,20.85,75.8042,A
1454,Jogwada Dam,19.635,76.5956,B
1455,Varandh Dam,18.1461,73.585,C
1456,Mugdhan Dam,21.1119,73.7539,D
1457,Haroli Dam,16.9733,74.7753,A
1458,Diwalwadi Dam,16.7258,73.7394,B
1459,Bhatkheda Dam,19.6139,75.8506,C
1460,Hathidra Dam,24.2297,72.6367,D
1461,Hamapur Dam,21.4103,70.9878,A
1462,Bagha Nalla Dam,24.6419,79.4611,B
1463,Mataji Dam,23.0228,74.8522,C
1464,Koka Dam,24.3033,81.2,D
1465,Wagh Dam,19.9178,73.3808,A
1466,Sirpur (Mantha) Dam,19.8822,76.4319,B
1467,Wazar (Degloor) Dam,18.3375,77.3911,C
1468,Kanheinalla Dam,19.2819,84.6014,D
1469,Pondi Dam,24.2853,82,A
1470,Hathani Dam,22.0683,79.2656,B
1471,Jobat Dam,22.2808,75.5844,C
1472,Wari Dam,20.7039,76.0928,D
1473,Suki Dam,21.2875,75.9297,A
1474,Deolipada Dam,21.2025,74.045,B